[{"OBJECT_NAME":"JILIN-1 06","OBJECT_ID":"2017-074C","EPOCH":"2026-03-09T22:46:57.173376","MEAN_MOTION":15.32444387,"ECCENTRICITY":0.00061285,"INCLINATION":97.4715,"RA_OF_ASC_NODE":171.0354,"ARG_OF_PERICENTER":223.0031,"MEAN_ANOMALY":137.0732,"EPHEMERIS_TYPE":0,"CLASSIFICATION_TYPE":"U","NORAD_CAT_ID":43024,"ELEMENT_SET_NO":999,"REV_AT_EPOCH":45863,"BSTAR":0.00028431628,"MEAN_MOTION_DOT":8.833e-5,"MEAN_MOTION_DDOT":0},{"OBJECT_NAME":"STARLINK-32147","OBJECT_ID":"2024-120T","EPOCH":"2026-03-09T21:29:16.020384","MEAN_MOTION":15.30195846,"ECCENTRICITY":4.387e-5,"INCLINATION":53.1603,"RA_OF_ASC_NODE":319.2488,"ARG_OF_PERICENTER":54.7945,"MEAN_ANOMALY":305.3097,"EPHEMERIS_TYPE":0,"CLASSIFICATION_TYPE":"U","NORAD_CAT_ID":60152,"ELEMENT_SET_NO":999,"REV_AT_EPOCH":9640,"BSTAR":0.00022361936,"MEAN_MOTION_DOT":6.269e-5,"MEAN_MOTION_DDOT":0}]
